{
    "week": 287,
    "satellites": [
        {
            "Name": "COSMOS 2545 (760)",
            "Line1": "1 45358U 20018A   24284.96335193 -.00000032  00000+0  00000+0 0  9999",
            "Line2": "2 45358  64.6934 333.9265 0011920 242.4903 117.4589  2.13102652 35574",
            "SatelliteNumber": "45358",
            "Classification": "U",
            "LaunchYear": "20",
            "LaunchNumber": "018",
            "PieceOfLaunch": "A",
            "EpochYear": "24",
            "EpochDay": 284.96335193,
            "FirstDerivativeMeanMotion": -3.2e-07,
            "SecondDerivativeMeanMotion": "00000+0",
            "BSTAR": "00000+0",
            "SetNumber": "999",
            "Inclination": 64.6934,
            "RAAN": 333.9265,
            "Eccentricity": 0.001192,
            "ArgumentOfPerigee": 242.4903,
            "MeanAnomaly": 117.4589,
            "MeanMotion": 2.13102652,
            "RevolutionNumber": "3557"
        },
        {
            "Name": "COSMOS 2547 (705K)",
            "Line1": "1 46805U 20075A   24284.68068702  .00000017  00000+0  00000+0 0  9990",
            "Line2": "2 46805  64.5984 213.0042 0007575 239.5968 120.3454  2.13102637 30815",
            "SatelliteNumber": "46805",
            "Classification": "U",
            "LaunchYear": "20",
            "LaunchNumber": "075",
            "PieceOfLaunch": "A",
            "EpochYear": "24",
            "EpochDay": 284.68068702,
            "FirstDerivativeMeanMotion": 1.7e-07,
            "SecondDerivativeMeanMotion": "00000+0",
            "BSTAR": "00000+0",
            "SetNumber": "999",
            "Inclination": 64.5984,
            "RAAN": 213.0042,
            "Eccentricity": 0.0007575,
            "ArgumentOfPerigee": 239.5968,
            "MeanAnomaly": 120.3454,
            "MeanMotion": 2.13102637,
            "RevolutionNumber": "3081"
        },
        {
            "Name": "COSMOS 2557 (706K)",
            "Line1": "1 52984U 22075A   24285.31576529 -.00000035  00000+0  00000+0 0  9990",
            "Line2": "2 52984  64.6230 336.0335 0013395 273.8924  86.0248  2.13102164 17624",
            "SatelliteNumber": "52984",
            "Classification": "U",
            "LaunchYear": "22",
            "LaunchNumber": "075",
            "PieceOfLaunch": "A",
            "EpochYear": "24",
            "EpochDay": 285.31576529,
            "FirstDerivativeMeanMotion": -3.5e-07,
            "SecondDerivativeMeanMotion": "00000+0",
            "BSTAR": "00000+0",
            "SetNumber": "999",
            "Inclination": 64.623,
            "RAAN": 336.0335,
            "Eccentricity": 0.0013395,
            "ArgumentOfPerigee": 273.8924,
            "MeanAnomaly": 86.0248,
            "MeanMotion": 2.13102164,
            "RevolutionNumber": "1762"
        },
        {
            "Name": "COSMOS 2559 (707K)",
            "Line1": "1 54031U 22130A   24284.78977365 -.00000037  00000+0  00000+0 0  9992",
            "Line2": "2 54031  64.5953 336.1655 0008290 225.7981 134.2036  2.13101434 15597",
            "SatelliteNumber": "54031",
            "Classification": "U",
            "LaunchYear": "22",
            "LaunchNumber": "130",
            "PieceOfLaunch": "A",
            "EpochYear": "24",
            "EpochDay": 284.78977365,
            "FirstDerivativeMeanMotion": -3.7e-07,
            "SecondDerivativeMeanMotion": "00000+0",
            "BSTAR": "00000+0",
            "SetNumber": "999",
            "Inclination": 64.5953,
            "RAAN": 336.1655,
            "Eccentricity": 0.000829,
            "ArgumentOfPerigee": 225.7981,
            "MeanAnomaly": 134.2036,
            "MeanMotion": 2.13101434,
            "RevolutionNumber": "1559"
        },
        {
            "Name": "COSMOS 2564 (761)",
            "Line1": "1 54377U 22161A   24284.51084832  .00000018  00000+0  00000+0 0  9996",
            "Line2": "2 54377  64.7400 213.1354 0009816 219.9833 139.9618  2.13101986 14538",
            "SatelliteNumber": "54377",
            "Classification": "U",
            "LaunchYear": "22",
            "LaunchNumber": "161",
            "PieceOfLaunch": "A",
            "EpochYear": "24",
            "EpochDay": 284.51084832,
            "FirstDerivativeMeanMotion": 1.8e-07,
            "SecondDerivativeMeanMotion": "00000+0",
            "BSTAR": "00000+0",
            "SetNumber": "999",
            "Inclination": 64.74,
            "RAAN": 213.1354,
            "Eccentricity": 0.0009816,
            "ArgumentOfPerigee": 219.9833,
            "MeanAnomaly": 139.9618,
            "MeanMotion": 2.13101986,
            "RevolutionNumber": "1453"
        },
        {
            "Name": "COSMOS 2569 (703K)",
            "Line1": "1 57517U 23114A   24284.99661703  .00000081  00000+0  00000+0 0  9994",
            "Line2": "2 57517  64.9710  93.3884 0008590 292.7648  67.1792  2.13103949  9170",
            "SatelliteNumber": "57517",
            "Classification": "U",
            "LaunchYear": "23",
            "LaunchNumber": "114",
            "PieceOfLaunch": "A",
            "EpochYear": "24",
            "EpochDay": 284.99661703,
            "FirstDerivativeMeanMotion": 8.1e-07,
            "SecondDerivativeMeanMotion": "00000+0",
            "BSTAR": "00000+0",
            "SetNumber": "999",
            "Inclination": 64.971,
            "RAAN": 93.3884,
            "Eccentricity": 0.000859,
            "ArgumentOfPerigee": 292.7648,
            "MeanAnomaly": 67.1792,
            "MeanMotion": 2.13103949,
            "RevolutionNumber": "917"
        }
    ]
}